{
  "type": "FeatureCollection",
  "features": [
    {
      "type": "Feature",
      "properties": {
        "norad_id": 37238,
        "name": "INTELSAT 17 (IS-17)",
        "group": "intelsat",
        "lat": -0.00988981207532322,
        "lon": 16.606356915212405,
        "alt_km": 35786.04290433591,
        "timestamp": "2025-12-19T14:48:35.912212+00:00",
        "meta_object_name": "INTELSAT 17 (IS-17)",
        "meta_object_id": "2010-065B",
        "meta_epoch": "2025-12-19T03:18:23.996736",
        "meta_mean_motion": 1.00271239,
        "meta_eccentricity": 0.00027488,
        "meta_inclination": 0.0258,
        "meta_ra_of_asc_node": 64.0761,
        "meta_arg_of_pericenter": 223.5698,
        "meta_mean_anomaly": 275.9182,
        "meta_ephemeris_type": 0,
        "meta_classification_type": "U",
        "meta_norad_cat_id": 37238,
        "meta_element_set_no": 999,
        "meta_rev_at_epoch": 5144,
        "meta_bstar": 0,
        "meta_mean_motion_dot": 0,
        "meta_mean_motion_ddot": 0,
        "tle_line1": "1 37238U 10065B   25353.13777774  .00000000  00000+0  00000+0 0  9994",
        "tle_line2": "2 37238   0.0258  64.0761 0002748 223.5698 275.9182  1.00271239 51443"
      },
      "geometry": {
        "type": "Point",
        "coordinates": [
          16.606356915212405,
          -0.00988981207532322
        ]
      }
    },
    {
      "type": "Feature",
      "properties": {
        "norad_id": 37392,
        "name": "INTELSAT 28 (IS-28)",
        "group": "intelsat",
        "lat": -0.3498938925394612,
        "lon": -81.08391742926945,
        "alt_km": 35771.11877946094,
        "timestamp": "2025-12-19T14:48:35.912224+00:00",
        "meta_object_name": "INTELSAT 28 (IS-28)",
        "meta_object_id": "2011-016A",
        "meta_epoch": "2025-12-19T06:15:51.996672",
        "meta_mean_motion": 1.00270298,
        "meta_eccentricity": 0.00036759,
        "meta_inclination": 1.3406,
        "meta_ra_of_asc_node": 84.9867,
        "meta_arg_of_pericenter": 186.8459,
        "meta_mean_anomaly": 238.5581,
        "meta_ephemeris_type": 0,
        "meta_classification_type": "U",
        "meta_norad_cat_id": 37392,
        "meta_element_set_no": 999,
        "meta_rev_at_epoch": 5148,
        "meta_bstar": 0,
        "meta_mean_motion_dot": -2.01e-06,
        "meta_mean_motion_ddot": 0,
        "tle_line1": "1 37392U 11016A   25353.26101848 -.00000201  00000+0  00000+0 0  9993",
        "tle_line2": "2 37392   1.3406  84.9867 0003675 186.8459 238.5581  1.00270298 51483"
      },
      "geometry": {
        "type": "Point",
        "coordinates": [
          -81.08391742926945,
          -0.3498938925394612
        ]
      }
    },
    {
      "type": "Feature",
      "properties": {
        "norad_id": 37834,
        "name": "INTELSAT 18 (IS-18)",
        "group": "intelsat",
        "lat": -0.0034082715583529342,
        "lon": 130.59132978877074,
        "alt_km": 35792.25140212173,
        "timestamp": "2025-12-19T14:48:35.912235+00:00",
        "meta_object_name": "INTELSAT 18 (IS-18)",
        "meta_object_id": "2011-056A",
        "meta_epoch": "2025-12-19T05:33:33.549120",
        "meta_mean_motion": 1.00272088,
        "meta_eccentricity": 0.0001651,
        "meta_inclination": 0.036,
        "meta_ra_of_asc_node": 278.9354,
        "meta_arg_of_pericenter": 5.8095,
        "meta_mean_anomaly": 66.7252,
        "meta_ephemeris_type": 0,
        "meta_classification_type": "U",
        "meta_norad_cat_id": 37834,
        "meta_element_set_no": 999,
        "meta_rev_at_epoch": 5200,
        "meta_bstar": 0,
        "meta_mean_motion_dot": 7.8e-07,
        "meta_mean_motion_ddot": 0,
        "tle_line1": "1 37834U 11056A   25353.23163830  .00000078  00000+0  00000+0 0  9995",
        "tle_line2": "2 37834   0.0360 278.9354 0001651   5.8095  66.7252  1.00272088 52007"
      },
      "geometry": {
        "type": "Point",
        "coordinates": [
          130.59132978877074,
          -0.0034082715583529342
        ]
      }
    },
    {
      "type": "Feature",
      "properties": {
        "norad_id": 38098,
        "name": "INTELSAT 22 (IS-22)",
        "group": "intelsat",
        "lat": 0.00013164278622283915,
        "lon": 22.719531819159176,
        "alt_km": 35788.32470015788,
        "timestamp": "2025-12-19T14:48:35.912247+00:00",
        "meta_object_name": "INTELSAT 22 (IS-22)",
        "meta_object_id": "2012-011A",
        "meta_epoch": "2025-12-19T03:20:08.830176",
        "meta_mean_motion": 1.00270527,
        "meta_eccentricity": 0.00018174,
        "meta_inclination": 0.0138,
        "meta_ra_of_asc_node": 52.7133,
        "meta_arg_of_pericenter": 225.8693,
        "meta_mean_anomaly": 291.5453,
        "meta_ephemeris_type": 0,
        "meta_classification_type": "U",
        "meta_norad_cat_id": 38098,
        "meta_element_set_no": 999,
        "meta_rev_at_epoch": 538,
        "meta_bstar": 0,
        "meta_mean_motion_dot": -3.4e-07,
        "meta_mean_motion_ddot": 0,
        "tle_line1": "1 38098U 12011A   25353.13899109 -.00000034  00000+0  00000+0 0  9997",
        "tle_line2": "2 38098   0.0138  52.7133 0001817 225.8693 291.5453  1.00270527  5384"
      },
      "geometry": {
        "type": "Point",
        "coordinates": [
          22.719531819159176,
          0.00013164278622283915
        ]
      }
    },
    {
      "type": "Feature",
      "properties": {
        "norad_id": 38356,
        "name": "INTELSAT 19 (IS-19)",
        "group": "intelsat",
        "lat": 0.030322688114417073,
        "lon": 116.5860055097416,
        "alt_km": 35796.097231418324,
        "timestamp": "2025-12-19T14:48:35.912259+00:00",
        "meta_object_name": "INTELSAT 19 (IS-19)",
        "meta_object_id": "2012-030A",
        "meta_epoch": "2025-12-19T05:29:33.931680",
        "meta_mean_motion": 1.00271258,
        "meta_eccentricity": 0.00027425,
        "meta_inclination": 0.0111,
        "meta_ra_of_asc_node": 346.2587,
        "meta_arg_of_pericenter": 278.4801,
        "meta_mean_anomaly": 71.7344,
        "meta_ephemeris_type": 0,
        "meta_classification_type": "U",
        "meta_norad_cat_id": 38356,
        "meta_element_set_no": 999,
        "meta_rev_at_epoch": 4864,
        "meta_bstar": 0,
        "meta_mean_motion_dot": -3.2e-07,
        "meta_mean_motion_ddot": 0,
        "tle_line1": "1 38356U 12030A   25353.22886495 -.00000032  00000+0  00000+0 0  9997",
        "tle_line2": "2 38356   0.0111 346.2587 0002742 278.4801  71.7344  1.00271258 48644"
      },
      "geometry": {
        "type": "Point",
        "coordinates": [
          116.5860055097416,
          0.030322688114417073
        ]
      }
    },
    {
      "type": "Feature",
      "properties": {
        "norad_id": 38740,
        "name": "INTELSAT 20 (IS-20)",
        "group": "intelsat",
        "lat": 0.002408504749826954,
        "lon": 19.101284739578634,
        "alt_km": 35798.56489876674,
        "timestamp": "2025-12-19T14:48:35.912271+00:00",
        "meta_object_name": "INTELSAT 20 (IS-20)",
        "meta_object_id": "2012-043A",
        "meta_epoch": "2025-12-18T23:17:38.747040",
        "meta_mean_motion": 1.00276399,
        "meta_eccentricity": 0.0003354,
        "meta_inclination": 0.0035,
        "meta_ra_of_asc_node": 39.113,
        "meta_arg_of_pericenter": 148.4948,
        "meta_mean_anomaly": 318.1253,
        "meta_ephemeris_type": 0,
        "meta_classification_type": "U",
        "meta_norad_cat_id": 38740,
        "meta_element_set_no": 999,
        "meta_rev_at_epoch": 4894,
        "meta_bstar": 0,
        "meta_mean_motion_dot": -1e-08,
        "meta_mean_motion_ddot": 0,
        "tle_line1": "1 38740U 12043A   25352.97058735 -.00000001  00000+0  00000+0 0  9993",
        "tle_line2": "2 38740   0.0035  39.1130 0003354 148.4948 318.1253  1.00276399 48947"
      },
      "geometry": {
        "type": "Point",
        "coordinates": [
          19.101284739578634,
          0.002408504749826954
        ]
      }
    },
    {
      "type": "Feature",
      "properties": {
        "norad_id": 38749,
        "name": "INTELSAT 21 (IS-21)",
        "group": "intelsat",
        "lat": -0.03337612892374233,
        "lon": -107.41820063371703,
        "alt_km": 35779.37054811238,
        "timestamp": "2025-12-19T14:48:35.912284+00:00",
        "meta_object_name": "INTELSAT 21 (IS-21)",
        "meta_object_id": "2012-045A",
        "meta_epoch": "2025-12-19T01:00:09.840384",
        "meta_mean_motion": 1.00268457,
        "meta_eccentricity": 0.00018239,
        "meta_inclination": 0.0291,
        "meta_ra_of_asc_node": 284.986,
        "meta_arg_of_pericenter": 330.5335,
        "meta_mean_anomaly": 149.4055,
        "meta_ephemeris_type": 0,
        "meta_classification_type": "U",
        "meta_norad_cat_id": 38749,
        "meta_element_set_no": 999,
        "meta_rev_at_epoch": 4871,
        "meta_bstar": 0,
        "meta_mean_motion_dot": -2.6e-06,
        "meta_mean_motion_ddot": 0,
        "tle_line1": "1 38749U 12045A   25353.04178056 -.00000260  00000+0  00000+0 0  9999",
        "tle_line2": "2 38749   0.0291 284.9860 0001823 330.5335 149.4055  1.00268457 48719"
      },
      "geometry": {
        "type": "Point",
        "coordinates": [
          -107.41820063371703,
          -0.03337612892374233
        ]
      }
    }
  ]
}